{"type": "FeatureCollection", "features": [ {"type": "Feature", "properties": {"norad_id": 34375, "name": "IRIDIUM 33 DEB", "group": "iridium-33-debris", "lat": -14.838760154285145, "lon": 178.84827965207268, "alt_km": 872.401004546774, "timestamp": "2025-12-19T22:41:52.780724+00:00", "meta": {"OBJECT_NAME": "IRIDIUM 33 DEB", "OBJECT_ID": "1997-051FT", "EPOCH": "2025-12-19T12:41:12.374016", "MEAN_MOTION": 14.1800419, "ECCENTRICITY": 0.0103655, "INCLINATION": 86.432, "RA_OF_ASC_NODE": 179.9636, "ARG_OF_PERICENTER": 105.4895, "MEAN_ANOMALY": 272.7356, "EPHEMERIS_TYPE": 0, "CLASSIFICATION_TYPE": "U", "NORAD_CAT_ID": 34375, "ELEMENT_SET_NO": 999, "REV_AT_EPOCH": 86808, "BSTAR": 0.00031892, "MEAN_MOTION_DOT": 7.08e-06, "MEAN_MOTION_DDOT": 0}, "tle": {"line1": "1 34375U 97051FT  25353.52861544  .00000708  00000+0  31892-3 0  9997", "line2": "2 34375  86.4320 179.9636 0103655 105.4895 272.7356 14.18004190868080"}}, "geometry": {"type": "Point", "coordinates": [178.84827965207268, -14.838760154285145]}}, {"type": "Feature", "properties": {"norad_id": 34376, "name": "IRIDIUM 33 DEB", "group": "iridium-33-debris", "lat": 73.74513912789754, "lon": 16.13119232040573, "alt_km": 670.3864785338619, "timestamp": "2025-12-19T22:41:52.780735+00:00", "meta": {"OBJECT_NAME": "IRIDIUM 33 DEB", "OBJECT_ID": "1997-051FU", "EPOCH": "2025-12-19T10:51:58.536576", "MEAN_MOTION": 14.62653833, "ECCENTRICITY": 0.0027979, "INCLINATION": 86.2977, "RA_OF_ASC_NODE": 3.5217, "ARG_OF_PERICENTER": 144.4882, "MEAN_ANOMALY": 215.8199, "EPHEMERIS_TYPE": 0, "CLASSIFICATION_TYPE": "U", "NORAD_CAT_ID": 34376, "ELEMENT_SET_NO": 999, "REV_AT_EPOCH": 88105, "BSTAR": 0.00096172, "MEAN_MOTION_DOT": 4.94e-05, "MEAN_MOTION_DDOT": 0}, "tle": {"line1": "1 34376U 97051FU  25353.45276084  .00004940  00000+0  96172-3 0  9993", "line2": "2 34376  86.2977   3.5217 0027979 144.4882 215.8199 14.62653833881055"}}, "geometry": {"type": "Point", "coordinates": [16.13119232040573, 73.74513912789754]}}, {"type": "Feature", "properties": {"norad_id": 34486, "name": "IRIDIUM 33 DEB", "group": "iridium-33-debris", "lat": 74.33868437793024, "lon": 21.700993428551445, "alt_km": 562.6890137053624, "timestamp": "2025-12-19T22:41:52.780745+00:00", "meta": {"OBJECT_NAME": "IRIDIUM 33 DEB", "OBJECT_ID": "1997-051GB", "EPOCH": "2025-12-19T11:48:44.838432", "MEAN_MOTION": 14.96085447, "ECCENTRICITY": 0.0013897, "INCLINATION": 86.393, "RA_OF_ASC_NODE": 8.9076, "ARG_OF_PERICENTER": 92.9331, "MEAN_ANOMALY": 60.6575, "EPHEMERIS_TYPE": 0, "CLASSIFICATION_TYPE": "U", "NORAD_CAT_ID": 34486, "ELEMENT_SET_NO": 999, "REV_AT_EPOCH": 89087, "BSTAR": 0.0015014, "MEAN_MOTION_DOT": 0.00016952, "MEAN_MOTION_DDOT": 0}, "tle": {"line1": "1 34486U 97051GB  25353.49218563  .00016952  00000+0  15014-2 0  9998", "line2": "2 34486  86.3930   8.9076 0013897  92.9331  60.6575 14.96085447890870"}}, "geometry": {"type": "Point", "coordinates": [21.700993428551445, 74.33868437793024]}}, {"type": "Feature", "properties": {"norad_id": 34487, "name": "IRIDIUM 33 DEB", "group": "iridium-33-debris", "lat": 15.58647818703636, "lon": -171.7473212943796, "alt_km": 736.348789723902, "timestamp": "2025-12-19T22:41:52.780755+00:00", "meta": {"OBJECT_NAME": "IRIDIUM 33 DEB", "OBJECT_ID": "1997-051GC", "EPOCH": "2025-12-18T07:45:56.041056", "MEAN_MOTION": 14.43223269, "ECCENTRICITY": 0.00331222, "INCLINATION": 86.3431, "RA_OF_ASC_NODE": 9.9731, "ARG_OF_PERICENTER": 110.9986, "MEAN_ANOMALY": 270.0816, "EPHEMERIS_TYPE": 0, "CLASSIFICATION_TYPE": "U", "NORAD_CAT_ID": 34487, "ELEMENT_SET_NO": 999, "REV_AT_EPOCH": 88329, "BSTAR": 0.00015301486, "MEAN_MOTION_DOT": 5.38e-06, "MEAN_MOTION_DDOT": 0}, "tle": {"line1": "1 34487U 97051GC  25352.32356529  .00000538  00000+0  15301-3 0  9998", "line2": "2 34487  86.3431   9.9731 0033122 110.9986 270.0816 14.43223269883297"}}, "geometry": {"type": "Point", "coordinates": [-171.7473212943796, 15.58647818703636]}}, {"type": "Feature", "properties": {"norad_id": 34488, "name": "IRIDIUM 33 DEB", "group": "iridium-33-debris", "lat": -48.088398660348645, "lon": 126.34554151127635, "alt_km": 487.18748995129044, "timestamp": "2025-12-19T22:41:52.780766+00:00", "meta": {"OBJECT_NAME": "IRIDIUM 33 DEB", "OBJECT_ID": "1997-051GD", "EPOCH": "2025-12-18T20:36:21.699936", "MEAN_MOTION": 15.30898743, "ECCENTRICITY": 0.00115528, "INCLINATION": 86.3236, "RA_OF_ASC_NODE": 302.7776, "ARG_OF_PERICENTER": 41.1127, "MEAN_ANOMALY": 319.099, "EPHEMERIS_TYPE": 0, "CLASSIFICATION_TYPE": "U", "NORAD_CAT_ID": 34488, "ELEMENT_SET_NO": 999, "REV_AT_EPOCH": 89333, "BSTAR": 0.0035214405, "MEAN_MOTION_DOT": 0.0010661, "MEAN_MOTION_DDOT": 0}, "tle": {"line1": "1 34488U 97051GD  25352.85858449  .00106610  00000+0  35214-2 0  9997", "line2": "2 34488  86.3236 302.7776 0011552  41.1127 319.0990 15.30898743893334"}}, "geometry": {"type": "Point", "coordinates": [126.34554151127635, -48.088398660348645]}}, {"type": "Feature", "properties": {"norad_id": 34492, "name": "IRIDIUM 33 DEB", "group": "iridium-33-debris", "lat": 19.149623862159842, "lon": 150.48730813616055, "alt_km": 724.7026714474605, "timestamp": "2025-12-19T22:41:52.780776+00:00", "meta": {"OBJECT_NAME": "IRIDIUM 33 DEB", "OBJECT_ID": "1997-051GH", "EPOCH": "2025-12-19T10:45:18.347328", "MEAN_MOTION": 14.25846982, "ECCENTRICITY": 0.0188646, "INCLINATION": 86.4707, "RA_OF_ASC_NODE": 331.9164, "ARG_OF_PERICENTER": 216.3823, "MEAN_ANOMALY": 273.3437, "EPHEMERIS_TYPE": 0, "CLASSIFICATION_TYPE": "U", "NORAD_CAT_ID": 34492, "ELEMENT_SET_NO": 999, "REV_AT_EPOCH": 85154, "BSTAR": 0.0022012, "MEAN_MOTION_DOT": 6.332e-05, "MEAN_MOTION_DDOT": 0}, "tle": {"line1": "1 34492U 97051GH  25353.44812902  .00006332  00000+0  22012-2 0  9994", "line2": "2 34492  86.4707 331.9164 0188646 216.3823 273.3437 14.25846982851542"}}, "geometry": {"type": "Point", "coordinates": [150.48730813616055, 19.149623862159842]}}, {"type": "Feature", "properties": {"norad_id": 34497, "name": "IRIDIUM 33 DEB", "group": "iridium-33-debris", "lat": 83.46950447812709, "lon": 83.9846908695579, "alt_km": 827.6165662080984, "timestamp": "2025-12-19T22:41:52.780787+00:00", "meta": {"OBJECT_NAME": "IRIDIUM 33 DEB", "OBJECT_ID": "1997-051GN", "EPOCH": "2025-12-19T10:35:53.025216", "MEAN_MOTION": 14.2747197, "ECCENTRICITY": 0.0078309, "INCLINATION": 86.2774, "RA_OF_ASC_NODE": 49.5385, "ARG_OF_PERICENTER": 317.619, "MEAN_ANOMALY": 57.0969, "EPHEMERIS_TYPE": 0, "CLASSIFICATION_TYPE": "U", "NORAD_CAT_ID": 34497, "ELEMENT_SET_NO": 999, "REV_AT_EPOCH": 86979, "BSTAR": 0.00044435, "MEAN_MOTION_DOT": 1.145e-05, "MEAN_MOTION_DDOT": 0}, "tle": {"line1": "1 34497U 97051GN  25353.44158594  .00001145  00000+0  44435-3 0  9990", "line2": "2 34497  86.2774  49.5385 0078309 317.6190  57.0969 14.27471970869798"}}, "geometry": {"type": "Point", "coordinates": [83.9846908695579, 83.46950447812709]}}, {"type": "Feature", "properties": {"norad_id": 34508, "name": "IRIDIUM 33 DEB", "group": "iridium-33-debris", "lat": 12.949061645132641, "lon": -81.24754262774326, "alt_km": 719.3395076270881, "timestamp": "2025-12-19T22:41:52.780797+00:00", "meta": {"OBJECT_NAME": "IRIDIUM 33 DEB", "OBJECT_ID": "1997-051GZ", "EPOCH": "2025-12-19T06:54:06.441120", "MEAN_MOTION": 14.38473954, "ECCENTRICITY": 0.0066492, "INCLINATION": 86.3709, "RA_OF_ASC_NODE": 99.8676, "ARG_OF_PERICENTER": 151.959, "MEAN_ANOMALY": 208.5216, "EPHEMERIS_TYPE": 0, "CLASSIFICATION_TYPE": "U", "NORAD_CAT_ID": 34508, "ELEMENT_SET_NO": 999, "REV_AT_EPOCH": 87403, "BSTAR": 0.00082341, "MEAN_MOTION_DOT": 2.599e-05, "MEAN_MOTION_DDOT": 0}, "tle": {"line1": "1 34508U 97051GZ  25353.28757455  .00002599  00000+0  82341-3 0  9998", "line2": "2 34508  86.3709  99.8676 0066492 151.9590 208.5216 14.38473954874031"}}, "geometry": {"type": "Point", "coordinates": [-81.24754262774326, 12.949061645132641]}}, {"type": "Feature", "properties": {"norad_id": 34521, "name": "IRIDIUM 33 DEB", "group": "iridium-33-debris", "lat": -86.3348292691274, "lon": -53.94332181667002, "alt_km": 689.546041458485, "timestamp": "2025-12-19T22:41:52.780807+00:00", "meta": {"OBJECT_NAME": "IRIDIUM 33 DEB", "OBJECT_ID": "1997-051HN", "EPOCH": "2025-12-19T03:24:49.282848", "MEAN_MOTION": 14.63417651, "ECCENTRICITY": 0.0002349, "INCLINATION": 86.3791, "RA_OF_ASC_NODE": 27.7294, "ARG_OF_PERICENTER": 185.2812, "MEAN_ANOMALY": 174.8375, "EPHEMERIS_TYPE": 0, "CLASSIFICATION_TYPE": "U", "NORAD_CAT_ID": 34521, "ELEMENT_SET_NO": 999, "REV_AT_EPOCH": 88566, "BSTAR": 0.00061239026, "MEAN_MOTION_DOT": 3.188e-05, "MEAN_MOTION_DDOT": 0}, "tle": {"line1": "1 34521U 97051HN  25353.14223707  .00003188  00000+0  61239-3 0  9994", "line2": "2 34521  86.3791  27.7294 0002349 185.2812 174.8375 14.63417651885663"}}, "geometry": {"type": "Point", "coordinates": [-53.94332181667002, -86.3348292691274]}}, {"type": "Feature", "properties": {"norad_id": 34525, "name": "IRIDIUM 33 DEB", "group": "iridium-33-debris", "lat": -80.37355274105988, "lon": 21.802555635820436, "alt_km": 760.6325712913786, "timestamp": "2025-12-19T22:41:52.780818+00:00", "meta": {"OBJECT_NAME": "IRIDIUM 33 DEB", "OBJECT_ID": "1997-051HS", "EPOCH": "2025-12-19T03:14:12.830208", "MEAN_MOTION": 14.42920186, "ECCENTRICITY": 0.00065078, "INCLINATION": 86.3722, "RA_OF_ASC_NODE": 44.1141, "ARG_OF_PERICENTER": 80.5154, "MEAN_ANOMALY": 309.013, "EPHEMERIS_TYPE": 0, "CLASSIFICATION_TYPE": "U", "NORAD_CAT_ID": 34525, "ELEMENT_SET_NO": 999, "REV_AT_EPOCH": 88180, "BSTAR": 0.00026538201, "MEAN_MOTION_DOT": 9.07e-06, "MEAN_MOTION_DDOT": 0}, "tle": {"line1": "1 34525U 97051HS  25353.13487072  .00000907  00000+0  26538-3 0  9993", "line2": "2 34525  86.3722  44.1141 0006507  80.5154 309.0130 14.42920186881803"}}, "geometry": {"type": "Point", "coordinates": [21.802555635820436, -80.37355274105988]}}]}